0 METEOR 2-17 DEB
1 35373U 88005AH  13280.63232725  .00001661  00000-0  13665-2 0  2390
2 35373 082.5123 046.5346 0014116 179.1112 181.0364 13.88654488242227
0 METEOR 2-17 DEB
1 35373U 88005AH  13290.57551831  .00001785  00000-0  14680-2 0  2403
2 35373 082.5219 038.5745 0016427 143.8605 216.4421 13.88690666243607
